{"type": "FeatureCollection", "features": [ {"type": "Feature", "properties": {"norad_id": 31225, "name": "FENGYUN 1C DEB", "group": "fengyun-1c-debris", "lat": 15.374494104630823, "lon": 70.04781725292194, "alt_km": 801.1203955075007, "timestamp": "2025-12-25T03:55:56.639128+00:00", "meta": {"OBJECT_NAME": "FENGYUN 1C DEB", "OBJECT_ID": "1999-025BLF", "EPOCH": "2025-12-24T16:43:58.754784", "MEAN_MOTION": 14.17917431, "ECCENTRICITY": 0.0088183, "INCLINATION": 98.9886, "RA_OF_ASC_NODE": 72.07, "ARG_OF_PERICENTER": 316.7616, "MEAN_ANOMALY": 197.3953, "EPHEMERIS_TYPE": 0, "CLASSIFICATION_TYPE": "U", "NORAD_CAT_ID": 31225, "ELEMENT_SET_NO": 999, "REV_AT_EPOCH": 95991, "BSTAR": 0.0012563, "MEAN_MOTION_DOT": 2.623e-05, "MEAN_MOTION_DDOT": 0}, "tle": {"line1": "1 31225U 99025BLF 25358.69720781  .00002623  00000+0  12563-2 0  9992", "line2": "2 31225  98.9886  72.0700 0088183 316.7616 197.3953 14.17917431959915"}}, "geometry": {"type": "Point", "coordinates": [70.04781725292194, 15.374494104630823]}}, {"type": "Feature", "properties": {"norad_id": 31226, "name": "FENGYUN 1C DEB", "group": "fengyun-1c-debris", "lat": -31.30289302979984, "lon": 173.29113789590437, "alt_km": 752.0655309316844, "timestamp": "2025-12-25T03:55:56.639139+00:00", "meta": {"OBJECT_NAME": "FENGYUN 1C DEB", "OBJECT_ID": "1999-025BLG", "EPOCH": "2025-12-17T06:26:05.828928", "MEAN_MOTION": 14.2670123, "ECCENTRICITY": 0.01270359, "INCLINATION": 98.3503, "RA_OF_ASC_NODE": 350.8791, "ARG_OF_PERICENTER": 182.6246, "MEAN_ANOMALY": 177.4284, "EPHEMERIS_TYPE": 0, "CLASSIFICATION_TYPE": "U", "NORAD_CAT_ID": 31226, "ELEMENT_SET_NO": 999, "REV_AT_EPOCH": 62118, "BSTAR": 0.0003027873, "MEAN_MOTION_DOT": 7.56e-06, "MEAN_MOTION_DDOT": 0}, "tle": {"line1": "1 31226U 99025BLG 25351.26812302  .00000756  00000+0  30279-3 0  9990", "line2": "2 31226  98.3503 350.8791 0127035 182.6246 177.4284 14.26701230621181"}}, "geometry": {"type": "Point", "coordinates": [173.29113789590437, -31.30289302979984]}}, {"type": "Feature", "properties": {"norad_id": 31228, "name": "FENGYUN 1C DEB", "group": "fengyun-1c-debris", "lat": -59.16503067754774, "lon": -73.4767226918759, "alt_km": 794.7359282146826, "timestamp": "2025-12-25T03:55:56.639149+00:00", "meta": {"OBJECT_NAME": "FENGYUN 1C DEB", "OBJECT_ID": "1999-025BLJ", "EPOCH": "2025-12-24T16:47:22.267392", "MEAN_MOTION": 14.36956545, "ECCENTRICITY": 0.0079322, "INCLINATION": 98.8699, "RA_OF_ASC_NODE": 270.8802, "ARG_OF_PERICENTER": 51.1727, "MEAN_ANOMALY": 8.9896, "EPHEMERIS_TYPE": 0, "CLASSIFICATION_TYPE": "U", "NORAD_CAT_ID": 31228, "ELEMENT_SET_NO": 999, "REV_AT_EPOCH": 97741, "BSTAR": 0.00053977, "MEAN_MOTION_DOT": 1.61e-05, "MEAN_MOTION_DDOT": 0}, "tle": {"line1": "1 31228U 99025BLJ 25358.69956328  .00001610  00000+0  53977-3 0  9993", "line2": "2 31228  98.8699 270.8802 0079322  51.1727   8.9896 14.36956545977416"}}, "geometry": {"type": "Point", "coordinates": [-73.4767226918759, -59.16503067754774]}}, {"type": "Feature", "properties": {"norad_id": 31229, "name": "FENGYUN 1C DEB", "group": "fengyun-1c-debris", "lat": 36.45961216061414, "lon": -98.84122522645255, "alt_km": 834.3161969356797, "timestamp": "2025-12-25T03:55:56.639162+00:00", "meta": {"OBJECT_NAME": "FENGYUN 1C DEB", "OBJECT_ID": "1999-025BLK", "EPOCH": "2025-12-24T03:36:47.278944", "MEAN_MOTION": 14.21887449, "ECCENTRICITY": 0.0054144, "INCLINATION": 98.8659, "RA_OF_ASC_NODE": 73.5182, "ARG_OF_PERICENTER": 263.5906, "MEAN_ANOMALY": 95.9103, "EPHEMERIS_TYPE": 0, "CLASSIFICATION_TYPE": "U", "NORAD_CAT_ID": 31229, "ELEMENT_SET_NO": 999, "REV_AT_EPOCH": 96246, "BSTAR": 0.001520999, "MEAN_MOTION_DOT": 3.359e-05, "MEAN_MOTION_DDOT": 0}, "tle": {"line1": "1 31229U 99025BLK 25358.15054721  .00003359  00000+0  15210-2 0  9990", "line2": "2 31229  98.8659  73.5182 0054144 263.5906  95.9103 14.21887449962461"}}, "geometry": {"type": "Point", "coordinates": [-98.84122522645255, 36.45961216061414]}}, {"type": "Feature", "properties": {"norad_id": 31231, "name": "FENGYUN 1C DEB", "group": "fengyun-1c-debris", "lat": 48.45466157078625, "lon": 149.35566089085722, "alt_km": 540.6576907629224, "timestamp": "2025-12-25T03:55:56.639172+00:00", "meta": {"OBJECT_NAME": "FENGYUN 1C DEB", "OBJECT_ID": "1999-025BLM", "EPOCH": "2025-12-23T04:31:59.359872", "MEAN_MOTION": 14.7598115, "ECCENTRICITY": 0.01447549, "INCLINATION": 98.861, "RA_OF_ASC_NODE": 157.3309, "ARG_OF_PERICENTER": 73.4101, "MEAN_ANOMALY": 288.2947, "EPHEMERIS_TYPE": 0, "CLASSIFICATION_TYPE": "U", "NORAD_CAT_ID": 31231, "ELEMENT_SET_NO": 999, "REV_AT_EPOCH": 63175, "BSTAR": 0.0022406568, "MEAN_MOTION_DOT": 0.00018286, "MEAN_MOTION_DDOT": 0}, "tle": {"line1": "1 31231U 99025BLM 25357.18888148  .00018286  00000+0  22407-2 0  9994", "line2": "2 31231  98.8610 157.3309 0144754  73.4101 288.2947 14.75981150631756"}}, "geometry": {"type": "Point", "coordinates": [149.35566089085722, 48.45466157078625]}}, {"type": "Feature", "properties": {"norad_id": 31234, "name": "FENGYUN 1C DEB", "group": "fengyun-1c-debris", "lat": -30.730303216575454, "lon": 167.5611015711762, "alt_km": 821.8149517489455, "timestamp": "2025-12-25T03:55:56.639194+00:00", "meta": {"OBJECT_NAME": "FENGYUN 1C DEB", "OBJECT_ID": "1999-025BLQ", "EPOCH": "2025-12-21T17:04:15.155328", "MEAN_MOTION": 14.08023964, "ECCENTRICITY": 0.00734361, "INCLINATION": 98.7852, "RA_OF_ASC_NODE": 349.4757, "ARG_OF_PERICENTER": 201.3949, "MEAN_ANOMALY": 158.4147, "EPHEMERIS_TYPE": 0, "CLASSIFICATION_TYPE": "U", "NORAD_CAT_ID": 31234, "ELEMENT_SET_NO": 999, "REV_AT_EPOCH": 72846, "BSTAR": 0.00028337584, "MEAN_MOTION_DOT": 4.51e-06, "MEAN_MOTION_DDOT": 0}, "tle": {"line1": "1 31234U 99025BLQ 25355.71128652  .00000451  00000+0  28338-3 0  9996", "line2": "2 31234  98.7852 349.4757 0073436 201.3949 158.4147 14.08023964728468"}}, "geometry": {"type": "Point", "coordinates": [167.5611015711762, -30.730303216575454]}}, {"type": "Feature", "properties": {"norad_id": 31235, "name": "FENGYUN 1C DEB", "group": "fengyun-1c-debris", "lat": -49.429703071854874, "lon": 156.90154567987182, "alt_km": 730.4303947143535, "timestamp": "2025-12-25T03:55:56.639205+00:00", "meta": {"OBJECT_NAME": "FENGYUN 1C DEB", "OBJECT_ID": "1999-025BLR", "EPOCH": "2025-12-24T02:46:21.503424", "MEAN_MOTION": 14.18770202, "ECCENTRICITY": 0.01798593, "INCLINATION": 98.4674, "RA_OF_ASC_NODE": 145.8804, "ARG_OF_PERICENTER": 348.7908, "MEAN_ANOMALY": 10.9286, "EPHEMERIS_TYPE": 0, "CLASSIFICATION_TYPE": "U", "NORAD_CAT_ID": 31235, "ELEMENT_SET_NO": 999, "REV_AT_EPOCH": 63328, "BSTAR": 0.0032766626, "MEAN_MOTION_DOT": 7.96e-05, "MEAN_MOTION_DDOT": 0}, "tle": {"line1": "1 31235U 99025BLR 25358.11552666  .00007960  00000+0  32767-2 0  9992", "line2": "2 31235  98.4674 145.8804 0179859 348.7908  10.9286 14.18770202633282"}}, "geometry": {"type": "Point", "coordinates": [156.90154567987182, -49.429703071854874]}}, {"type": "Feature", "properties": {"norad_id": 31236, "name": "FENGYUN 1C DEB", "group": "fengyun-1c-debris", "lat": 18.059567036011536, "lon": 136.1324136624051, "alt_km": 1137.7750102875516, "timestamp": "2025-12-25T03:55:56.639216+00:00", "meta": {"OBJECT_NAME": "FENGYUN 1C DEB", "OBJECT_ID": "1999-025BLS", "EPOCH": "2025-12-23T19:59:02.166144", "MEAN_MOTION": 13.86019444, "ECCENTRICITY": 0.03149414, "INCLINATION": 98.5455, "RA_OF_ASC_NODE": 312.105, "ARG_OF_PERICENTER": 16.5726, "MEAN_ANOMALY": 344.545, "EPHEMERIS_TYPE": 0, "CLASSIFICATION_TYPE": "U", "NORAD_CAT_ID": 31236, "ELEMENT_SET_NO": 999, "REV_AT_EPOCH": 61178, "BSTAR": 0.0059238181, "MEAN_MOTION_DOT": 0.00010034, "MEAN_MOTION_DDOT": 0}, "tle": {"line1": "1 31236U 99025BLS 25357.83266396  .00010034  00000+0  59238-2 0  9991", "line2": "2 31236  98.5455 312.1050 0314941  16.5726 344.5450 13.86019444611782"}}, "geometry": {"type": "Point", "coordinates": [136.1324136624051, 18.059567036011536]}}, {"type": "Feature", "properties": {"norad_id": 31237, "name": "FENGYUN 1C DEB", "group": "fengyun-1c-debris", "lat": -40.06844192667131, "lon": 4.883687550595561, "alt_km": 730.6033950543206, "timestamp": "2025-12-25T03:55:56.639226+00:00", "meta": {"OBJECT_NAME": "FENGYUN 1C DEB", "OBJECT_ID": "1999-025BLT", "EPOCH": "2025-12-23T18:34:00.359328", "MEAN_MOTION": 14.31422507, "ECCENTRICITY": 0.00884208, "INCLINATION": 98.4539, "RA_OF_ASC_NODE": 356.3439, "ARG_OF_PERICENTER": 316.2174, "MEAN_ANOMALY": 43.2021, "EPHEMERIS_TYPE": 0, "CLASSIFICATION_TYPE": "U", "NORAD_CAT_ID": 31237, "ELEMENT_SET_NO": 999, "REV_AT_EPOCH": 97424, "BSTAR": 0.00051858077, "MEAN_MOTION_DOT": 1.393e-05, "MEAN_MOTION_DDOT": 0}, "tle": {"line1": "1 31237U 99025BLT 25357.77361527  .00001393  00000+0  51858-3 0  9996", "line2": "2 31237  98.4539 356.3439 0088420 316.2174  43.2021 14.31422507974242"}}, "geometry": {"type": "Point", "coordinates": [4.883687550595561, -40.06844192667131]}}, {"type": "Feature", "properties": {"norad_id": 31239, "name": "FENGYUN 1C DEB", "group": "fengyun-1c-debris", "lat": -81.11731095289937, "lon": 74.32699991397024, "alt_km": 878.4774230904686, "timestamp": "2025-12-25T03:55:56.639236+00:00", "meta": {"OBJECT_NAME": "FENGYUN 1C DEB", "OBJECT_ID": "1999-025BLV", "EPOCH": "2025-12-24T20:24:31.180896", "MEAN_MOTION": 14.09876628, "ECCENTRICITY": 0.0049885, "INCLINATION": 98.7587, "RA_OF_ASC_NODE": 353.4674, "ARG_OF_PERICENTER": 163.7429, "MEAN_ANOMALY": 316.9251, "EPHEMERIS_TYPE": 0, "CLASSIFICATION_TYPE": "U", "NORAD_CAT_ID": 31239, "ELEMENT_SET_NO": 999, "REV_AT_EPOCH": 96182, "BSTAR": 0.00030985, "MEAN_MOTION_DOT": 5.09e-06, "MEAN_MOTION_DDOT": 0}, "tle": {"line1": "1 31239U 99025BLV 25358.85036089  .00000509  00000+0  30985-3 0  9996", "line2": "2 31239  98.7587 353.4674 0049885 163.7429 316.9251 14.09876628961826"}}, "geometry": {"type": "Point", "coordinates": [74.32699991397024, -81.11731095289937]}}]}